{"type":"Feature","properties":{"name":"Universiti Malaya"},"geometry":{"type":"MultiPolygon","coordinates":[[[[101.6367031,3.1192644],[101.6380011,3.1192477],[101.6380104,3.1197443],[101.6367105,3.1197563],[101.6367031,3.1192644]]],[[[101.6384499,3.1188782],[101.6384786,3.1188389],[101.6403824,3.118764],[101.640388,3.119075],[101.6405673,3.1190829],[101.6407771,3.1192165],[101.6410637,3.1195215],[101.6411022,3.1195848],[101.6420051,3.1195257],[101.642015,3.1196963],[101.6421446,3.1219205],[101.6399146,3.121929],[101.6397843,3.121477],[101.6387279,3.1206415],[101.6386092,3.1204992],[101.6385401,3.1203425],[101.6384751,3.1200748],[101.6384499,3.1188782]]],[[[101.6442002,3.1208616],[101.6445588,3.1205268],[101.6449028,3.1203746],[101.6458743,3.1201499],[101.6461612,3.1201024],[101.6462188,3.1202122],[101.6462413,3.1202551],[101.6464192,3.1201928],[101.646498,3.1207713],[101.6464985,3.1207746],[101.64669,3.1207611],[101.6466966,3.120973],[101.6465177,3.1210515],[101.6464417,3.1210171],[101.6464833,3.1211683],[101.6464725,3.1212375],[101.64644,3.1212819],[101.6464981,3.1214387],[101.6459289,3.121922],[101.6454528,3.1222787],[101.6442134,3.120947],[101.6442002,3.1208616]]],[[[101.6483151,3.1292986],[101.6489101,3.1289891],[101.6490071,3.1288396],[101.6489921,3.1286778],[101.6490082,3.1286406],[101.6492973,3.1286427],[101.6493791,3.1286476],[101.6494864,3.1287604],[101.6495098,3.1288338],[101.6493432,3.1288632],[101.6493562,3.1289167],[101.6494949,3.1289539],[101.6495979,3.1289841],[101.6496931,3.1289662],[101.649742,3.1289097],[101.649555,3.1286604],[101.6494958,3.12852],[101.649486,3.1283173],[101.6495164,3.128211],[101.649622,3.1280106],[101.6497247,3.1278787],[101.6498145,3.127793],[101.649832,3.1277757],[101.6497575,3.1276372],[101.6496497,3.1274685],[101.6495752,3.1274166],[101.6495652,3.1272616],[101.6496155,3.1271997],[101.6497936,3.127072],[101.650029,3.1270143],[101.6499047,3.1268249],[101.6498442,3.1267426],[101.6498223,3.1265982],[101.6498641,3.1264073],[101.6499666,3.1261596],[101.6500054,3.126136],[101.6500792,3.1258893],[101.6500851,3.1258259],[101.6501634,3.1256476],[101.6500293,3.1257032],[101.649999,3.1255295],[101.6499688,3.125501],[101.6499326,3.1255328],[101.6498868,3.1256038],[101.6498174,3.1256527],[101.6497277,3.1257],[101.6495847,3.1257411],[101.6494704,3.1257793],[101.649335,3.1258893],[101.6491105,3.1261888],[101.6486118,3.1266],[101.6485742,3.1266213],[101.6485569,3.1264103],[101.6484005,3.1259867],[101.6483923,3.1258694],[101.6484604,3.1257801],[101.6485983,3.1252849],[101.6487526,3.1249706],[101.6484351,3.1247617],[101.6484599,3.1246344],[101.6485672,3.1245529],[101.6490751,3.124546],[101.6497816,3.1241638],[101.6499119,3.124342],[101.6499023,3.1242764],[101.6498775,3.1241076],[101.6498514,3.1239296],[101.649707,3.1236942],[101.6498338,3.123633],[101.6503137,3.1234229],[101.6503156,3.1230438],[101.6503218,3.1217728],[101.649228,3.121605],[101.6489156,3.1215008],[101.6485251,3.121241],[101.6487656,3.1207668],[101.6488992,3.1207667],[101.6495909,3.1209874],[101.6499438,3.1211111],[101.6502239,3.1195482],[101.6511138,3.1188736],[101.65122,3.1187425],[101.6515232,3.1184984],[101.6517016,3.118531],[101.6521403,3.1187618],[101.6521494,3.1182677],[101.6525651,3.1179524],[101.652649,3.1178887],[101.6529853,3.1176788],[101.653032,3.1175436],[101.6529109,3.1174354],[101.6527378,3.1173378],[101.6526872,3.1172706],[101.6526889,3.1172033],[101.6523542,3.1169723],[101.6513731,3.1160611],[101.651062,3.1158335],[101.6511262,3.1157266],[101.6507469,3.115499],[101.6507081,3.1154538],[101.6506861,3.115394],[101.6511642,3.114114],[101.6512089,3.1139942],[101.6512317,3.1139514],[101.6513041,3.1138866],[101.6513336,3.1138819],[101.651357,3.1138806],[101.6513932,3.1138806],[101.6519131,3.1139538],[101.6520736,3.1139471],[101.6521974,3.1138591],[101.6524947,3.1138508],[101.6525046,3.1137075],[101.6536012,3.1136691],[101.6536067,3.1138846],[101.6539698,3.1138762],[101.653966,3.1141901],[101.6539702,3.11419],[101.6544206,3.1141915],[101.6544228,3.1139857],[101.6558999,3.1140222],[101.6558979,3.1143787],[101.6562638,3.1142489],[101.6566857,3.1145274],[101.6572897,3.114229],[101.65792,3.1138396],[101.6585684,3.1143897],[101.659027,3.1147473],[101.6595083,3.1151444],[101.66202,3.1163203],[101.6627266,3.1173398],[101.663269,3.1180013],[101.6633584,3.11823],[101.6633463,3.1182722],[101.6632501,3.1183397],[101.6632096,3.1182769],[101.6629989,3.11836],[101.6630161,3.1187497],[101.6630293,3.1188565],[101.6630503,3.1189433],[101.6624729,3.1192494],[101.6622209,3.1193961],[101.6618965,3.1196619],[101.661629,3.119911],[101.6613409,3.1204429],[101.6612175,3.1208313],[101.6611454,3.1212426],[101.6611392,3.1217218],[101.6611202,3.1225667],[101.6612673,3.1235026],[101.6612477,3.1237621],[101.6612917,3.1241717],[101.6613519,3.1241937],[101.6613565,3.1245767],[101.6614987,3.1246826],[101.6616328,3.1253578],[101.6616654,3.1264093],[101.66162,3.1268953],[101.6616127,3.1275602],[101.661583,3.1276661],[101.6614779,3.128357],[101.6613876,3.1291829],[101.6612112,3.1298429],[101.6611084,3.1300624],[101.6608433,3.130408],[101.6606404,3.1306724],[101.660546,3.131081],[101.6607119,3.131169],[101.6605327,3.1318084],[101.660336,3.1322756],[101.6602032,3.1322197],[101.6601486,3.1325251],[101.659651,3.133201],[101.6601732,3.1335112],[101.6602307,3.1336084],[101.6603239,3.133822],[101.6619406,3.1376493],[101.6588714,3.1378355],[101.6587823,3.1373413],[101.6590195,3.1371187],[101.6591043,3.1368428],[101.6590797,3.1366687],[101.6589918,3.1364731],[101.6587638,3.1363153],[101.6585796,3.1362792],[101.6583721,3.1362519],[101.6581068,3.1362108],[101.6578265,3.1359656],[101.6577244,3.1360598],[101.6572975,3.1357342],[101.6571984,3.1352502],[101.6567453,3.1352819],[101.6564137,3.1352588],[101.6560221,3.1351812],[101.6555956,3.1350285],[101.6543001,3.1347071],[101.6536027,3.1346],[101.6531467,3.1344313],[101.6529053,3.1342813],[101.6525164,3.1339519],[101.6517386,3.133135],[101.6502825,3.1319635],[101.6500066,3.1317415],[101.6495045,3.1314655],[101.6492378,3.131215],[101.6490164,3.1309211],[101.6490758,3.1308483],[101.6490065,3.1307453],[101.648933,3.130687],[101.6489004,3.1306204],[101.6489004,3.1304954],[101.648989,3.1303951],[101.6487909,3.1300788],[101.6486359,3.1299855],[101.6485762,3.1299583],[101.6484762,3.1297383],[101.6485031,3.1296709],[101.6483151,3.1292986]]],[[[101.6525142,3.1115698],[101.6525376,3.1109125],[101.6525749,3.1108477],[101.6526344,3.1107985],[101.6530458,3.1108075],[101.6531828,3.1108808],[101.6538719,3.1114048],[101.6538612,3.1115468],[101.6537885,3.1116687],[101.6534455,3.111648],[101.6534459,3.1115758],[101.6525142,3.1115698]]]]}}